*******************************************************************************
JPL/HORIZONS              344 Desiderata (A892 WA)         2023-Sep-04 11:05:48
Rec #:     344 (+COV) Soln.date: 2023-Aug-23_10:22:56   # obs: 4159 (1892-2023)
 
IAU76/J2000 helio. ecliptic osc. elements (au, days, deg., period=Julian yrs):
 
  EPOCH=  2457850.5 ! 2017-Apr-07.00 (TDB)         Residual RMS= .28167
   EC= .313149778868102    QR= 1.783692028633602   TP= 2457850.4005594198
   OM= 48.04498309931969   W=  237.467774648941    IN= 18.34701837113738
   A= 2.59691556289253     MA= .0234196812606914   ADIST= 3.410139097151459
   PER= 4.185              N= .235514326           ANGMOM= .026326826
   DAN= 2.81658            DDN= 2.00466            L= 284.1430215
   B= -15.3895576          MOID= .83439398         TP= 2017-Apr-06.9005594198
 
Asteroid physical parameters (km, seconds, rotational period in hours):
   GM= n.a.                RAD= 62.0905            ROTPER= 10.747
   H= 8.37                 G= .150                 B-V= .725
                           ALBEDO= .067            STYP= C

ASTEROID comments: 
1: soln ref.= JPL#112, OCC=0
2: source=ORB
*******************************************************************************


*******************************************************************************
Ephemeris / API_USER Mon Sep  4 11:05:48 2023 Pasadena, USA      / Horizons
*******************************************************************************
Target body name: 344 Desiderata (A892 WA)        {source: JPL#112}
Center body name: Solar System Barycenter (0)     {source: DE441}
Center-site name: BODY CENTER
*******************************************************************************
Start time      : A.D. 2023-Aug-12 00:00:00.0000 TDB
Stop  time      : A.D. 2023-Aug-13 00:00:00.0000 TDB
Step-size       : 2880 minutes
*******************************************************************************
Center geodetic : 0.0, 0.0, 0.0                   {E-lon(deg),Lat(deg),Alt(km)}
Center cylindric: 0.0, 0.0, 0.0                   {E-lon(deg),Dxy(km),Dz(km)}
Center radii    : (undefined)
Small perturbers: Yes                             {source: SB441-N16}
Output units    : KM-S
Calendar mode   : Mixed Julian/Gregorian
Output type     : GEOMETRIC cartesian states
Output format   : 2 (position and velocity)
Reference frame : Ecliptic of J2000.0
*******************************************************************************
Initial IAU76/J2000 heliocentric ecliptic osculating elements (au, days, deg.):
  EPOCH=  2457850.5 ! 2017-Apr-07.00 (TDB)         Residual RMS= .28167        
   EC= .313149778868102    QR= 1.783692028633602   TP= 2457850.4005594198      
   OM= 48.04498309931969   W=  237.467774648941    IN= 18.34701837113738       
  Equivalent ICRF heliocentric cartesian coordinates (au, au/d):
   X= 4.215899784095453E-01  Y=-1.341226266428683E+00  Z=-1.097693836674256E+00
  VX= 1.391981711773405E-02 VY= 4.870067117479911E-03 VZ=-6.090701872222980E-04
Asteroid physical parameters (km, seconds, rotational period in hours):        
   GM= n.a.                RAD= 62.0905            ROTPER= 10.747              
   H= 8.37                 G= .150                 B-V= .725                   
                           ALBEDO= .067            STYP= C                     
*******************************************************************************
JDTDB
   X     Y     Z
   VX    VY    VZ
*******************************************************************************
$$SOE
2460168.500000000 = A.D. 2023-Aug-12 00:00:00.0000 TDB 
 X =-1.487366890500866E+08 Y = 4.671238712715568E+08 Z = 1.401453568137855E+08
 VX=-1.230112930823810E+01 VY=-4.870416149498523E+00 VZ= 1.955729289252047E+00
$$EOE
*******************************************************************************
 
TIME

  Barycentric Dynamical Time ("TDB" or T_eph) output was requested. This
continuous coordinate time is equivalent to the relativistic proper time
of a clock at rest in a reference frame co-moving with the solar system
barycenter but outside the system's gravity well. It is the independent
variable in the solar system relativistic equations of motion.

  TDB runs at a uniform rate of one SI second per second and is independent
of irregularities in Earth's rotation.
 
CALENDAR SYSTEM

  Mixed calendar mode was active such that calendar dates after AD 1582-Oct-15
(if any) are in the modern Gregorian system. Dates prior to 1582-Oct-5 (if any)
are in the Julian calendar system, which is automatically extended for dates
prior to its adoption on 45-Jan-1 BC.  The Julian calendar is useful for
matching historical dates. The Gregorian calendar more accurately corresponds
to the Earth's orbital motion and seasons. A "Gregorian-only" calendar mode is
available if such physical events are the primary interest.

REFERENCE FRAME AND COORDINATES

  Ecliptic at the standard reference epoch

    Reference epoch: J2000.0
    X-Y plane: adopted Earth orbital plane at the reference epoch
               Note: IAU76 obliquity of 84381.448 arcseconds wrt ICRF X-Y plane
    X-axis   : ICRF
    Z-axis   : perpendicular to the X-Y plane in the directional (+ or -) sense
               of Earth's north pole at the reference epoch.

  Symbol meaning:

    JDTDB    Julian Day Number, Barycentric Dynamical Time
      X      X-component of position vector (km)
      Y      Y-component of position vector (km)
      Z      Z-component of position vector (km)
      VX     X-component of velocity vector (km/sec)                           
      VY     Y-component of velocity vector (km/sec)                           
      VZ     Z-component of velocity vector (km/sec)                           

ABERRATIONS AND CORRECTIONS

 Geometric state vectors have NO corrections or aberrations applied.

Computations by ...

    Solar System Dynamics Group, Horizons On-Line Ephemeris System
    4800 Oak Grove Drive, Jet Propulsion Laboratory
    Pasadena, CA  91109   USA

    General site: https://ssd.jpl.nasa.gov/
    Mailing list: https://ssd.jpl.nasa.gov/email_list.html
    System news : https://ssd.jpl.nasa.gov/horizons/news.html
    User Guide  : https://ssd.jpl.nasa.gov/horizons/manual.html
    Connect     : browser        https://ssd.jpl.nasa.gov/horizons/app.html#/x
                  API            https://ssd-api.jpl.nasa.gov/doc/horizons.html
                  command-line   telnet ssd.jpl.nasa.gov 6775
                  e-mail/batch   https://ssd.jpl.nasa.gov/ftp/ssd/hrzn_batch.txt
                  scripts        https://ssd.jpl.nasa.gov/ftp/ssd/SCRIPTS
    Author      : Jon.D.Giorgini@jpl.nasa.gov
*******************************************************************************
